[{"OBJECT_NAME":"FLOCK 4G-8","OBJECT_ID":"2025-009E","EPOCH":"2026-03-09T17:22:17.546016","MEAN_MOTION":15.27623414,"ECCENTRICITY":0.00030503,"INCLINATION":97.4045,"RA_OF_ASC_NODE":151.2834,"ARG_OF_PERICENTER":315.2538,"MEAN_ANOMALY":44.8455,"EPHEMERIS_TYPE":0,"CLASSIFICATION_TYPE":"U","NORAD_CAT_ID":62613,"ELEMENT_SET_NO":999,"REV_AT_EPOCH":6372,"BSTAR":0.0005043806,"MEAN_MOTION_DOT":0.00013559,"MEAN_MOTION_DDOT":0},{"OBJECT_NAME":"STARLINK-34260","OBJECT_ID":"2025-124T","EPOCH":"2026-03-09T12:45:35.584704","MEAN_MOTION":15.27585172,"ECCENTRICITY":0.00020538,"INCLINATION":43.0023,"RA_OF_ASC_NODE":122.8303,"ARG_OF_PERICENTER":261.3098,"MEAN_ANOMALY":98.7521,"EPHEMERIS_TYPE":0,"CLASSIFICATION_TYPE":"U","NORAD_CAT_ID":64334,"ELEMENT_SET_NO":999,"REV_AT_EPOCH":4175,"BSTAR":0.00096485008,"MEAN_MOTION_DOT":0.00026388,"MEAN_MOTION_DDOT":0}]
